ADRAS-J                 
1 58992U 24034A   24119.74159775  .00005857  00000+0  55255-3 0  9997
2 58992  98.2104  90.5537 0043335 209.2666 150.6124 14.93475993 10483
